LYNK TOWER 4            
1 55034U 23001AB  26068.67743801  .00009160  00000+0  30014-3 0  9997
2 55034  97.3324 128.5940 0010321 112.3386 247.8950 15.31819885176588
STARLINK-35686          
1 66407U 25257AD  26068.68215379  .00024647  00000+0  84136-3 0  9994
2 66407  53.1594 216.9578 0000448 125.3337 234.7706 15.30206182 19737
